[Satellite]
VERSION=1.1
NAME=CREW DRAGON DEMO-2
NICKNAME=CREW DRAGON DEMO-2
TLE1=1 45623U 20033A   20157.47384259  .00001123  00000-0  28151-4 0  9993
TLE2=2 45623  51.6456  46.4421 0001971  30.8087 322.0133 15.49423387230199
STATUS=0
